{
    "links": {
        "self": "http://www.neowsapp.com/rest/v1/neo/3334435?api_key=iIulBulltgU6a56xZRHN4H3l9WmuAYTsLGpBGhQ2"
    },
    "id": "3334435",
    "neo_reference_id": "3334435",
    "name": "(2006 KC40)",
    "designation": "2006 KC40",
    "nasa_jpl_url": "http://ssd.jpl.nasa.gov/sbdb.cgi?sstr=3334435",
    "absolute_magnitude_h": 23.2,
    "estimated_diameter": {
        "kilometers": {
            "estimated_diameter_min": 0.0608912622,
            "estimated_diameter_max": 0.1361570015
        },
        "meters": {
            "estimated_diameter_min": 60.8912622106,
            "estimated_diameter_max": 136.1570015386
        },
        "miles": {
            "estimated_diameter_min": 0.0378360645,
            "estimated_diameter_max": 0.0846040122
        },
        "feet": {
            "estimated_diameter_min": 199.7744887109,
            "estimated_diameter_max": 446.7093369279
        }
    },
    "is_potentially_hazardous_asteroid": false,
    "close_approach_data": [
        {
            "close_approach_date": "1967-12-05",
            "close_approach_date_full": "1967-Dec-05 00:19",
            "epoch_date_close_approach": -65490060000,
            "relative_velocity": {
                "kilometers_per_second": "28.9044292157",
                "kilometers_per_hour": "104055.9451763598",
                "miles_per_hour": "64656.3177124998"
            },
            "miss_distance": {
                "astronomical": "0.4895976531",
                "lunar": "190.4534870559",
                "kilometers": "73242766.060758897",
                "miles": "45510944.4596188986"
            },
            "orbiting_body": "Earth"
        },
        {
            "close_approach_date": "2000-06-18",
            "close_approach_date_full": "2000-Jun-18 07:32",
            "epoch_date_close_approach": 961313520000,
            "relative_velocity": {
                "kilometers_per_second": "10.920313174",
                "kilometers_per_hour": "39313.1274263784",
                "miles_per_hour": "24427.6485389072"
            },
            "miss_distance": {
                "astronomical": "0.0512745115",
                "lunar": "19.9457849735",
                "kilometers": "7670557.705690505",
                "miles": "4766263.543738769"
            },
            "orbiting_body": "Mars"
        },
        {
            "close_approach_date": "2006-06-22",
            "close_approach_date_full": "2006-Jun-22 04:13",
            "epoch_date_close_approach": 1150949580000,
            "relative_velocity": {
                "kilometers_per_second": "13.5407221899",
                "kilometers_per_hour": "48746.5998837088",
                "miles_per_hour": "30289.24146663"
            },
            "miss_distance": {
                "astronomical": "0.0506377322",
                "lunar": "19.6980778258",
                "kilometers": "7575296.878750414",
                "miles": "4707071.2106631532"
            },
            "orbiting_body": "Earth"
        },
        {
            "close_approach_date": "2008-11-20",
            "close_approach_date_full": "2008-Nov-20 22:35",
            "epoch_date_close_approach": 1227220500000,
            "relative_velocity": {
                "kilometers_per_second": "20.3626364229",
                "kilometers_per_hour": "73305.4911223",
                "miles_per_hour": "45549.181414298"
            },
            "miss_distance": {
                "astronomical": "0.211605285",
                "lunar": "82.314455865",
                "kilometers": "31655699.91674295",
                "miles": "19669939.82103471"
            },
            "orbiting_body": "Earth"
        },
        {
            "close_approach_date": "2131-05-24",
            "close_approach_date_full": "2131-May-24 21:12",
            "epoch_date_close_approach": 5093097120000,
            "relative_velocity": {
                "kilometers_per_second": "28.8991683214",
                "kilometers_per_hour": "104037.0059568798",
                "miles_per_hour": "64644.5496180401"
            },
            "miss_distance": {
                "astronomical": "0.4969136144",
                "lunar": "193.2993960016",
                "kilometers": "74337218.288241328",
                "miles": "46191005.5389252064"
            },
            "orbiting_body": "Earth"
        }
    ],
    "orbital_data": {
        "orbit_id": "12",
        "orbit_determination_date": "2017-04-06 09:08:35",
        "first_observation_date": "2006-05-25",
        "last_observation_date": "2006-06-15",
        "data_arc_in_days": 21,
        "observations_used": 33,
        "orbit_uncertainty": "7",
        "minimum_orbit_intersection": ".0270581",
        "jupiter_tisserand_invariant": "4.067",
        "epoch_osculation": "2459000.5",
        "eccentricity": ".5295189218177675",
        "semi_major_axis": "1.669208299941387",
        "inclination": "8.819658531221808",
        "ascending_node_longitude": "77.92868354855833",
        "orbital_period": "787.706138984239",
        "perihelion_distance": ".785330920667155",
        "perihelion_argument": "260.4217020106371",
        "aphelion_distance": "2.553085679215619",
        "perihelion_time": "2458683.364807660319",
        "mean_anomaly": "144.9381483677498",
        "mean_motion": ".4570232250115841",
        "equinox": "J2000",
        "orbit_class": {
            "orbit_class_type": "APO",
            "orbit_class_description": "Near-Earth asteroid orbits which cross the Earth’s orbit similar to that of 1862 Apollo",
            "orbit_class_range": "a (semi-major axis) > 1.0 AU; q (perihelion) < 1.017 AU"
        }
    },
    "is_sentry_object": false
}